ONEWEB-0685             
1 54679U 22166AP  24262.33433345 -.00001421  00000+0 -34723-2 0  9992
2 54679  87.9365  10.7926 0001501 108.2491 251.8806 13.21833448 87280
ONEWEB-0712             
1 54680U 22166AQ  24262.81687300 -.00000033  00000+0 -11788-3 0  9994
2 54680  87.9172 355.5048 0002143 112.0834 248.0525 13.17114775 88782
ONEWEB-0714             
1 54681U 22166AR  24262.34066207  .00000057  00000+0  10577-3 0  9999
2 54681  87.9363  10.7793 0001557 100.1471 259.9839 13.21827721 87409
ONEWEB-0532             
1 55140U 23004A   24262.61194228 -.00000098  00000+0 -28681-3 0  9999
2 55140  87.9129 132.6636 0002072  67.5128 292.6222 13.17650051 83757
ONEWEB-0533             
1 55141U 23004B   24262.57215157  .00000084  00000+0  19716-3 0  9992
2 55141  87.8876 117.4395 0001595  82.4071 277.7239 13.12442841 84553
ONEWEB-0541             
1 55142U 23004C   24262.71463177  .00000278  00000+0  74991-3 0  9997
2 55142  87.8969 147.8156 0001637  74.6484 285.4825 13.11412496 82532
ONEWEB-0543             
1 55143U 23004D   24262.56041184  .00000168  00000+0  39446-3 0  9995
2 55143  87.9055 102.2674 0001703  96.3086 263.8240 13.18687939 85798
ONEWEB-0544             
1 55144U 23004E   24262.55407504 -.00000326  00000+0 -85862-3 0  9998
2 55144  87.9056 102.2548 0001890  89.4857 270.6492 13.18685413 85796
